OBJECT_NAME,OBJECT_ID,EPOCH,MEAN_MOTION,ECCENTRICITY,INCLINATION,RA_OF_ASC_NODE,ARG_OF_PERICENTER,MEAN_ANOMALY,EPHEMERIS_TYPE,CLASSIFICATION_TYPE,NORAD_CAT_ID,ELEMENT_SET_NO,REV_AT_EPOCH,BSTAR,MEAN_MOTION_DOT,MEAN_MOTION_DDOT
STARLINK-31632,2024-057G,2024-04-22T02:54:09.520992,15.49767733,9.27e-05,42.9992,152.3699,133.4311,226.6626,0,U,59326,999,545,2.4473e-05,1.057e-05,0
STARLINK-31599,2024-057H,2024-04-22T06:00:00.999648,15.40729669,0.0001752,42.9993,151.7944,253.9977,34.1091,0,U,59327,999,547,-0.0012014,-0.0005021,0
STARLINK-31614,2024-057J,2024-04-22T06:00:00.999648,15.44779634,8.93e-05,42.9995,151.629,208.0297,148.4407,0,U,59328,999,553,-0.051506,-0.02176892,0
STARLINK-31493,2024-057K,2024-04-22T06:00:00.999648,15.40749664,0.0001238,42.9994,151.7338,338.9797,334.0016,0,U,59329,999,553,-0.0021275,-0.00088298,0
STARLINK-31634,2024-057L,2024-04-22T02:52:09.529536,15.49814675,4.42e-05,42.9995,152.3579,231.6616,128.4204,0,U,59330,999,552,0.00046405,0.00026245,0
STARLINK-31633,2024-057M,2024-04-22T02:51:38.830752,15.49854074,0.0003102,42.9957,152.3567,28.8228,331.2803,0,U,59331,999,552,0.00057329,0.00032579,0
STARLINK-31594,2024-057N,2024-04-22T02:51:09.942912,15.49801533,0.0002157,43.0004,152.3512,305.0008,55.0649,0,U,59332,999,546,8.6129e-05,4.579e-05,0
STARLINK-31572,2024-057P,2024-04-22T02:50:10.086720,15.49764739,8.01e-05,42.9988,152.3462,269.3107,90.7661,0,U,59333,999,546,7.8631e-05,4.146e-05,0
STARLINK-31573,2024-057Q,2024-04-22T02:49:44.455296,15.49709472,0.0002599,42.9984,152.3446,237.3549,122.706,0,U,59334,999,546,-0.00039444,-0.00022712,0
STARLINK-31588,2024-057R,2024-04-21T22:00:00.999936,15.46920228,0.0001072,42.9998,153.536,243.5319,65.9021,0,U,59335,999,542,-0.047702,-0.02172577,0
STARLINK-31596,2024-057S,2024-04-22T06:00:00.999648,15.40709801,0.0001641,42.9993,151.7014,272.4199,53.0241,0,U,59336,999,553,-0.00062477,-0.0002632,0
STARLINK-31612,2024-057T,2024-04-21T22:00:00.999936,15.49770858,0.0001252,42.9999,153.5139,264.8172,53.5215,0,U,59337,999,549,-0.00028294,-0.00016433,0
STARLINK-31550,2024-057U,2024-04-22T02:48:12.204288,15.49801704,4.95e-05,42.9992,152.3369,10.521,349.566,0,U,59338,999,546,0.00027737,0.00015522,0
STARLINK-31473,2024-057V,2024-04-22T06:00:00.999648,15.40713764,9.94e-05,42.9994,151.6413,293.4384,56.877,0,U,59339,999,548,-0.00090358,-0.00037877,0
STARLINK-31562,2024-057W,2024-04-22T03:28:06.096864,15.40707993,0.0001347,43.0004,152.5456,316.5941,43.4809,0,U,59340,999,551,0.00025643,0.00010426,0
STARLINK-31600,2024-057X,2024-04-22T02:47:13.871328,15.49758888,0.0001096,42.9989,152.3281,21.2852,338.8053,0,U,59341,999,552,-0.00025003,-0.00014558,0
STARLINK-31628,2024-057Y,2024-04-22T00:00:00.999648,15.50010669,0.000153,42.9996,153.0031,267.3893,165.9697,0,U,59342,999,544,-0.0063295,-0.0034849,0
YUNHAI-3 02,2024-058A,2024-04-22T04:41:15.210816,14.13315482,0.0001149,98.8236,120.8606,79.6597,280.4705,0,U,59343,999,371,0.00013436,2.08e-06,0
CZ-6A R/B,2024-058B,2024-04-21T22:05:27.388896,14.28233485,0.0077625,98.8251,121.2359,285.6833,73.5794,0,U,59344,999,371,0.00019754,4.62e-06,0
EUTELSAT 36D,2024-059A,2024-04-01T04:44:52.210464,1.21523355,0.8209875,26.8972,350.5938,177.4328,194.8376,0,U,59346,999,4,0.0045424,3.675e-05,0
FALCON 9 R/B,2024-059B,2024-04-20T17:56:04.621344,1.22325774,0.8201057,26.8365,347.1044,183.3094,160.6436,0,U,59347,999,25,0.0044609,3.637e-05,0
STARLINK-31605,2024-060A,2024-04-22T04:00:00.999936,15.4372629,0.0001312,42.9996,214.5157,278.5754,110.7333,0,U,59348,999,456,-0.052477,-0.02143757,0
STARLINK-31532,2024-060B,2024-04-21T22:00:00.999936,15.48921936,0.0001058,42.9998,215.9448,259.092,186.7266,0,U,59349,999,463,-6.4489e-05,-3.9e-05,0
STARLINK-31593,2024-060C,2024-04-21T22:00:00.999936,15.48891442,0.0002051,42.9999,215.9398,271.8141,175.9507,0,U,59350,999,458,0.00018434,9.866e-05,0
STARLINK-31555,2024-060D,2024-04-21T22:00:00.999936,15.48904696,0.0001724,43,215.9352,274.248,175.4285,0,U,59351,999,463,-0.00018226,-0.00010398,0
STARLINK-31561,2024-060E,2024-04-21T22:00:00.999936,15.48881834,0.0001384,42.9999,215.9302,283.6605,167.935,0,U,59352,999,463,0.00078223,0.00043119,0
STARLINK-31413,2024-060F,2024-04-21T22:00:00.999936,15.48930979,0.000199,43,215.9204,276.8647,178.5406,0,U,59353,999,458,-0.00077617,-0.00043054,0
STARLINK-31422,2024-060G,2024-04-22T04:00:00.999936,15.48858655,0.0001711,42.9997,214.4664,265.462,143.7155,0,U,59354,999,462,0.0022682,0.00126931,0
STARLINK-31416,2024-060H,2024-04-22T04:00:00.999936,15.4886971,0.0001585,42.9997,214.4566,262.5998,150.4441,0,U,59355,999,462,0.00081424,0.00044889,0
STARLINK-31552,2024-060J,2024-04-21T22:00:00.999936,15.48910586,0.0001788,42.9999,215.9107,270.9321,188.3077,0,U,59356,999,458,1.9528e-05,7.45e-06,0
