STARLINK-31632          
1 59326U 24057G   24113.12094353  .00001057  00000+0  24473-4 0  9997
2 59326  42.9992 152.3699 0000927 133.4311 226.6626 15.49767733  5457
STARLINK-31599          
1 59327U 24057H   24113.25001157 -.00050210  00000+0 -12014-2 0  9995
2 59327  42.9993 151.7944 0001752 253.9977  34.1091 15.40729669  5475
STARLINK-31614          
1 59328U 24057J   24113.25001157 -.02176892  00000+0 -51506-1 0  9991
2 59328  42.9995 151.6290 0000893 208.0297 148.4407 15.44779634  5530
STARLINK-31493          
1 59329U 24057K   24113.25001157 -.00088298  00000+0 -21275-2 0  9993
2 59329  42.9994 151.7338 0001238 338.9797 334.0016 15.40749664  5531
STARLINK-31634          
1 59330U 24057L   24113.11955474  .00026245  00000+0  46405-3 0  9995
2 59330  42.9995 152.3579 0000442 231.6616 128.4204 15.49814675  5520
STARLINK-31633          
1 59331U 24057M   24113.11919943  .00032579  00000+0  57329-3 0  9991
2 59331  42.9957 152.3567 0003102  28.8228 331.2803 15.49854074  5523
STARLINK-31594          
1 59332U 24057N   24113.11886508  .00004579  00000+0  86129-4 0  9992
2 59332  43.0004 152.3512 0002157 305.0008  55.0649 15.49801533  5468
STARLINK-31572          
1 59333U 24057P   24113.11817230  .00004146  00000+0  78631-4 0  9998
2 59333  42.9988 152.3462 0000801 269.3107  90.7661 15.49764739  5464
STARLINK-31573          
1 59334U 24057Q   24113.11787564 -.00022712  00000+0 -39444-3 0  9994
2 59334  42.9984 152.3446 0002599 237.3549 122.7060 15.49709472  5466
STARLINK-31588          
1 59335U 24057R   24112.91667824 -.02172577  00000+0 -47702-1 0  9999
2 59335  42.9998 153.5360 0001072 243.5319  65.9021 15.46920228  5421
STARLINK-31596          
1 59336U 24057S   24113.25001157 -.00026320  00000+0 -62477-3 0  9999
2 59336  42.9993 151.7014 0001641 272.4199  53.0241 15.40709801  5532
STARLINK-31612          
1 59337U 24057T   24112.91667824 -.00016433  00000+0 -28294-3 0  9994
2 59337  42.9999 153.5139 0001252 264.8172  53.5215 15.49770858  5491
STARLINK-31550          
1 59338U 24057U   24113.11680792  .00015522  00000+0  27737-3 0  9994
2 59338  42.9992 152.3369 0000495  10.5210 349.5660 15.49801704  5468
STARLINK-31473          
1 59339U 24057V   24113.25001157 -.00037877  00000+0 -90358-3 0  9990
2 59339  42.9994 151.6413 0000994 293.4384  56.8770 15.40713764  5482
STARLINK-31562          
1 59340U 24057W   24113.14451501  .00010426  00000+0  25643-3 0  9996
2 59340  43.0004 152.5456 0001347 316.5941  43.4809 15.40707993  5510
STARLINK-31600          
1 59341U 24057X   24113.11613277 -.00014558  00000+0 -25003-3 0  9996
2 59341  42.9989 152.3281 0001096  21.2852 338.8053 15.49758888  5528
STARLINK-31628          
1 59342U 24057Y   24113.00001157 -.00348490  00000+0 -63295-2 0  9992
2 59342  42.9996 153.0031 0001530 267.3893 165.9697 15.50010669  5443
YUNHAI-3 02             
1 59343U 24058A   24113.19531494  .00000208  00000+0  13436-3 0  9999
2 59343  98.8236 120.8606 0001149  79.6597 280.4705 14.13315482  3712
CZ-6A R/B               
1 59344U 24058B   24112.92045589  .00000462  00000+0  19754-3 0  9996
2 59344  98.8251 121.2359 0077625 285.6833  73.5794 14.28233485  3711
EUTELSAT 36D            
1 59346U 24059A   24092.19782651  .00003675  00000+0  45424-2 0  9994
2 59346  26.8972 350.5938 8209875 177.4328 194.8376  1.21523355    46
FALCON 9 R/B            
1 59347U 24059B   24111.74727571  .00003637  00000+0  44609-2 0  9990
2 59347  26.8365 347.1044 8201057 183.3094 160.6436  1.22325774   250
STARLINK-31605          
1 59348U 24060A   24113.16667824 -.02143757  00000+0 -52477-1 0  9998
2 59348  42.9996 214.5157 0001312 278.5754 110.7333 15.43726290  4562
STARLINK-31532          
1 59349U 24060B   24112.91667824 -.00003900  00000+0 -64489-4 0  9993
2 59349  42.9998 215.9448 0001058 259.0920 186.7266 15.48921936  4634
STARLINK-31593          
1 59350U 24060C   24112.91667824  .00009866  00000+0  18434-3 0  9998
2 59350  42.9999 215.9398 0002051 271.8141 175.9507 15.48891442  4582
STARLINK-31555          
1 59351U 24060D   24112.91667824 -.00010398  00000+0 -18226-3 0  9992
2 59351  43.0000 215.9352 0001724 274.2480 175.4285 15.48904696  4637
STARLINK-31561          
1 59352U 24060E   24112.91667824  .00043119  00000+0  78223-3 0  9991
2 59352  42.9999 215.9302 0001384 283.6605 167.9350 15.48881834  4630
STARLINK-31413          
1 59353U 24060F   24112.91667824 -.00043054  00000+0 -77617-3 0  9998
2 59353  43.0000 215.9204 0001990 276.8647 178.5406 15.48930979  4589
STARLINK-31422          
1 59354U 24060G   24113.16667824  .00126931  00000+0  22682-2 0  9992
2 59354  42.9997 214.4664 0001711 265.4620 143.7155 15.48858655  4623
STARLINK-31416          
1 59355U 24060H   24113.16667824  .00044889  00000+0  81424-3 0  9994
2 59355  42.9997 214.4566 0001585 262.5998 150.4441 15.48869710  4627
STARLINK-31552          
1 59356U 24060J   24112.91667824  .00000745  00000+0  19528-4 0  9997
2 59356  42.9999 215.9107 0001788 270.9321 188.3077 15.48910586  4583
